FM13
1 25420U 98046H   15188.87057612  .00000170  00000-0  11460-3 0  9992
2 25420  45.0002 358.5529 0004431 157.5407 345.5258 14.31948832883211
FM21
1 25475U 98053A   15188.17618635  .00000553  00000-0  25604-3 0  9991
2 25475  45.0108  84.1189 0001466 353.7121   6.3706 14.31988384876319
FM23
1 25477U 98053C   15188.24189266  .00000617  00000-0  27979-3 0  9992
2 25477  45.0102  84.0285 0000891  18.6654 134.1382 14.31989151876481
FM27
1 25481U 98053G   15188.82195993  .00000530  00000-0  24749-3 0  9991
2 25481  45.0084  82.0342 0002177 324.9039  35.1663 14.31994655876528
FM30
1 25980U 99065A   15188.59470164  .00000355  00000-0  18327-3 0  9999
2 25980  45.0327 253.8815 0005434 277.3268 236.3042 14.31944231813802
FM31
1 25981U 99065B   15189.46961699  .00000437  00000-0  21331-3 0  9995
2 25981  45.0242 245.9140 0004363 289.1520 152.8454 14.31944990813928
FM32
1 25982U 99065C   15188.96441326  .00000117  00000-0  95628-4 0  9996
2 25982  45.0196 245.4373 0006427 306.1488 110.5378 14.31628318813880
FM33
1 25983U 99065D   15189.15330689  .00000418  00000-0  19742-3 0  9994
2 25983  45.0296 225.5129 0011695 269.5731 137.4519 14.34223925814206
FM36
1 25984U 99065E   15189.50596986  .00000474  00000-0  22730-3 0  9991
2 25984  45.0379 251.8462 0005615 223.5529 136.4874 14.31947399813927
FM35
1 25985U 99065F   15188.58179882  .00000379  00000-0  19233-3 0  9999
2 25985  45.0414 257.5302 0003411 269.4932  90.5523 14.31928783813807
FM34
1 25986U 99065G   15188.43505625  .00000331  00000-0  17452-3 0  9991
2 25986  45.0406 257.6157 0005271 258.3405 101.6850 14.31936815813774
FM109
1 40086U 14040A   15189.39924934  .00000278  00000-0  10670-3 0  9998
2 40086  47.0031 161.8775 0016271 242.1062 117.8174 14.52856286 52300
FM107
1 40087U 14040B   15189.41222405  .00000274  00000-0  10569-3 0  9999
2 40087  47.0053 162.0037 0025976 246.0592 113.7570 14.52866925 52308
FM106
1 40088U 14040C   15189.08225686  .00000202  00000-0  88513-4 0  9993
2 40088  47.0040 163.6742 0022523 243.0584 116.7998 14.52876401 52237
FM111
1 40089U 14040D   15189.25764636  .00000968  00000-0  16622-3 0  9996
2 40089  47.0072 119.3238 0037680 291.9370  67.7520 14.76120037 52842
FM104
1 40090U 14040E   15188.40829698  .00000181  00000-0  83316-4 0  9996
2 40090  47.0051 167.0238 0018990 238.3908 121.5122 14.52863215 52142
FM103
1 40091U 14040F   15189.04121853  .00000222  00000-0  93141-4 0  9999
2 40091  47.0050 164.2101 0014650 238.7081 121.2368 14.52872827 52222
